STARLINK-2646           
1 48642U 21044E   26068.41951628  .00009762  00000+0  34111-3 0  9999
2 48642  53.1580 115.1995 0001329  78.8022 281.3129 15.30215302263785
TRANSPORTER-11 OBJECT A 
1 60468U 24149A   26068.74646182  .00010774  00000+0  36054-3 0  9993
2 60468  97.3780 149.0949 0003110 191.0010 169.1164 15.31141332 86830
